NORAD_CAT_ID,OBJECT_NAME,OBJECT_TYPE,EPOCH,MEAN_MOTION,ECCENTRICITY,INCLINATION,RA_OF_ASC_NODE,ARG_OF_PERICENTER,MEAN_ANOMALY,BSTAR,MEAN_MOTION_DOT,MEAN_MOTION_DDOT,TLE_LINE0,TLE_LINE1,TLE_LINE2,SEMIMAJOR_AXIS,PERIOD,APOGEE,PERIGEE,DECAYED
53592.0,STARLINK-4672,PAYLOAD,2024-04-21 07:43:19,15.0881655,0.0001302,53.2179,89.9715,94.1322,265.9819,-2.1662e-05,-6.32e-06,0.0,0 STARLINK-4672,1 53592U 22104E   24112.32175825 -.00000632  00000-0 -21662-4 0  9990,2 53592  53.2179  89.9715 0001302  94.1322 265.9819 15.08816550 92177,6917.952,95.439,540.718,538.916,0.0
53592.0,STARLINK-4672,PAYLOAD,2024-04-22 04:23:19,15.08841509,0.0002024,53.2183,86.1081,72.1432,287.978,3.5028e-05,2.69e-06,0.0,0 STARLINK-4672,1 53592U 22104E   24113.18286978  .00000269  00000-0  35028-4 0  9992,2 53592  53.2183  86.1081 0002024  72.1432 287.9780 15.08841509 91281,6917.876,95.437,541.141,538.341,0.0
53592.0,STARLINK-4672,PAYLOAD,2024-04-22 05:58:42,15.0885561,0.0001984,53.2197,85.8081,68.8755,291.2449,0.00019536,2.824e-05,0.0,0 STARLINK-4672,1 53592U 22104E   24113.24909769  .00002824  00000-0  19536-3 0  9993,2 53592  53.2197  85.8081 0001984  68.8755 291.2449 15.08855610 91295,6917.833,95.437,541.07,538.325,0.0
53592.0,STARLINK-4672,PAYLOAD,2024-04-23 04:14:07,15.08830652,0.0002007,53.2194,81.648,76.1932,283.9283,0.00025944,3.842e-05,0.0,0 STARLINK-4672,1 53592U 22104E   24114.17647191  .00003842  00000-0  25944-3 0  9995,2 53592  53.2194  81.6480 0002007  76.1932 283.9283 15.08830652 91434,6917.909,95.438,541.162,538.386,0.0
53592.0,STARLINK-4672,PAYLOAD,2024-04-24 02:29:30,15.08859468,0.00016,53.2188,77.4848,113.5761,246.5399,-0.00010323,-1.931e-05,0.0,0 STARLINK-4672,1 53592U 22104E   24115.10382053 -.00001931  00000-0 -10323-3 0  9996,2 53592  53.2188  77.4848 0001600 113.5761 246.5399 15.08859468 91576,6917.821,95.436,540.793,538.579,0.0
53592.0,STARLINK-4672,PAYLOAD,2024-04-24 07:15:38,15.08868492,0.0001811,53.2187,76.586,117.5146,242.603,-0.00020483,-3.549e-05,0.0,0 STARLINK-4672,1 53592U 22104E   24115.30253461 -.00003549  00000-0 -20483-3 0  9993,2 53592  53.2187  76.5860 0001811 117.5146 242.6030 15.08868492 92627,6917.793,95.436,540.911,538.405,0.0
53592.0,STARLINK-4672,PAYLOAD,2024-04-24 21:34:08,15.08839803,0.0001821,53.2196,73.9083,116.167,243.9509,-1.0542e-05,-4.56e-06,0.0,0 STARLINK-4672,1 53592U 22104E   24115.89870500 -.00000456  00000-0 -10542-4 0  9996,2 53592  53.2196  73.9083 0001821 116.1670 243.9509 15.08839803 92712,6917.881,95.438,541.006,538.486,0.0
53592.0,STARLINK-4672,PAYLOAD,2024-04-25 03:55:41,15.08834163,0.0001552,53.219,72.7181,109.1939,250.9222,-6.7283e-05,-1.358e-05,0.0,0 STARLINK-4672,1 53592U 22104E   24116.16367013 -.00001358  00000-0 -67283-4 0  9993,2 53592  53.2190  72.7181 0001552 109.1939 250.9222 15.08834163 91738,6917.898,95.438,540.837,538.69,0.0
53592.0,STARLINK-4672,PAYLOAD,2024-04-26 02:11:04,15.08840734,0.0001236,53.2182,68.5584,95.7825,264.3308,-1.0506e-05,-4.55e-06,0.0,0 STARLINK-4672,1 53592U 22104E   24117.09102670 -.00000455  00000-0 -10506-4 0  9995,2 53592  53.2182  68.5584 0001236  95.7825 264.3308 15.08840734 91872,6917.878,95.438,540.598,538.888,0.0
53592.0,STARLINK-4672,PAYLOAD,2024-04-26 13:18:45,15.08852575,0.0001518,53.2204,66.4852,98.088,262.0284,0.00010887,1.446e-05,0.0,0 STARLINK-4672,1 53592U 22104E   24117.55469428  .00001446  00000-0  10887-3 0  9993,2 53592  53.2204  66.4852 0001518  98.0880 262.0284 15.08852575 91944,6917.842,95.437,540.757,538.657,0.0
53592.0,STARLINK-4672,PAYLOAD,2024-04-27 03:37:15,15.08831604,0.0001615,53.2198,63.8096,103.559,256.5582,7.0122e-05,8.28e-06,0.0,0 STARLINK-4672,1 53592U 22104E   24118.15087115  .00000828  00000-0  70122-4 0  9991,2 53592  53.2198  63.8096 0001615 103.5590 256.5582 15.08831604 92035,6917.906,95.438,540.888,538.654,0.0
53592.0,STARLINK-4672,PAYLOAD,2024-04-27 13:09:32,15.08853661,0.0001275,53.2179,62.018,68.7741,291.3387,0.00020599,2.993e-05,0.0,0 STARLINK-4672,1 53592U 22104E   24118.54829117  .00002993  00000-0  20599-3 0  9997,2 53592  53.2179  62.0180 0001275  68.7741 291.3387 15.08853661 92094,6917.839,95.437,540.586,538.822,0.0
53592.0,STARLINK-4672,PAYLOAD,2024-04-28 05:03:26,15.08834427,0.0001256,53.2188,59.0508,94.5025,265.6111,-0.00012712,-2.31e-05,0.0,0 STARLINK-4672,1 53592U 22104E   24119.21071912 -.00002310  00000-0 -12712-3 0  9997,2 53592  53.2188  59.0508 0001256  94.5025 265.6111 15.08834427 92194,6917.897,95.438,540.631,538.894,0.0
53592.0,STARLINK-4672,PAYLOAD,2024-04-28 13:00:21,15.08840595,0.0001563,53.2202,57.5623,79.6803,280.4366,-7.1941e-05,-1.433e-05,0.0,0 STARLINK-4672,1 53592U 22104E   24119.54191456 -.00001433  00000-0 -71941-4 0  9994,2 53592  53.2202  57.5623 0001563  79.6803 280.4366 15.08840595 93260,6917.879,95.438,540.825,538.662,0.0
53592.0,STARLINK-4672,PAYLOAD,2024-04-29 12:51:07,15.08858494,0.0001383,53.2192,53.0986,77.1355,282.9792,8.6068e-05,1.083e-05,0.0,0 STARLINK-4672,1 53592U 22104E   24120.53549983  .00001083  00000-0  86068-4 0  9992,2 53592  53.2192  53.0986 0001383  77.1355 282.9792 15.08858494 92396,6917.824,95.436,540.646,538.732,0.0
53592.0,STARLINK-4672,PAYLOAD,2024-04-29 19:12:40,15.08837913,0.0002628,53.2189,51.9128,75.4799,284.6485,0.00031517,4.731e-05,0.0,0 STARLINK-4672,1 53592U 22104E   24120.80046954  .00004731  00000-0  31517-3 0  9993,2 53592  53.2189  51.9128 0002628  75.4799 284.6485 15.08837913 92439,6917.887,95.438,541.57,537.934,0.0
53592.0,STARLINK-4672,PAYLOAD,2024-04-30 12:41:54,15.08846798,0.0001433,53.2183,48.6407,77.966,282.1493,0.00016016,2.262e-05,0.0,0 STARLINK-4672,1 53592U 22104E   24121.52910684  .00002262  00000-0  16016-3 0  9997,2 53592  53.2183  48.6407 0001433  77.9660 282.1493 15.08846798 93561,6917.86,95.437,540.716,538.733,0.0
53592.0,STARLINK-4672,PAYLOAD,2024-04-30 19:03:27,15.08840868,0.0001778,53.2203,47.4486,93.3626,266.757,7.0557e-05,8.35e-06,0.0,0 STARLINK-4672,1 53592U 22104E   24121.79407382  .00000835  00000-0  70557-4 0  9997,2 53592  53.2203  47.4486 0001778  93.3626 266.7570 15.08840868 92581,6917.878,95.437,540.973,538.513,0.0
53592.0,STARLINK-4672,PAYLOAD,2024-05-01 12:32:41,15.08852989,0.0001531,53.22,44.1786,89.539,270.5778,7.0758e-06,-1.75e-06,0.0,0 STARLINK-4672,1 53592U 22104E   24122.52270448 -.00000175  00000-0  70758-5 0  9992,2 53592  53.2200  44.1786 0001531  89.5390 270.5778 15.08852989 92699,6917.841,95.437,540.765,538.647,0.0
53592.0,STARLINK-4672,PAYLOAD,2024-05-01 18:54:14,15.08839977,0.0002175,53.218,42.9883,93.1925,266.9316,6.2697e-05,7.1e-06,0.0,0 STARLINK-4672,1 53592U 22104E   24122.78767252  .00000710  00000-0  62697-4 0  9990,2 53592  53.2180  42.9883 0002175  93.1925 266.9316 15.08839977 92734,6917.88,95.438,541.25,538.241,0.0
53592.0,STARLINK-4672,PAYLOAD,2024-05-02 04:26:34,15.08836603,0.0001555,53.2201,41.2063,95.1432,264.9738,-6.4591e-05,-1.316e-05,0.0,0 STARLINK-4672,1 53592U 22104E   24123.18511820 -.00001316  00000-0 -64591-4 0  9993,2 53592  53.2201  41.2063 0001555  95.1432 264.9738 15.08836603 92791,6917.891,95.438,540.832,538.68,0.0
53592.0,STARLINK-4672,PAYLOAD,2024-05-03 01:06:33,15.08845528,0.000141,53.2191,37.342,93.8523,266.263,0.00020321,2.948e-05,0.0,0 STARLINK-4672,1 53592U 22104E   24124.04622585  .00002948  00000-0  20321-3 0  9992,2 53592  53.2191  37.3420 0001410  93.8523 266.2630 15.08845528 92925,6917.863,95.437,540.704,538.753,0.0
53592.0,STARLINK-4672,PAYLOAD,2024-05-03 10:38:51,15.08865453,0.00013,53.2193,35.5573,96.1148,263.9992,0.00021008,3.059e-05,0.0,0 STARLINK-4672,1 53592U 22104E   24124.44365096  .00003059  00000-0  21008-3 0  9994,2 53592  53.2193  35.5573 0001300  96.1148 263.9992 15.08865453 92983,6917.803,95.436,540.567,538.768,0.0
53592.0,STARLINK-4672,PAYLOAD,2024-05-03 18:35:50,15.0881044,0.0001416,53.2189,34.071,87.5105,272.605,-1.7032e-05,-5.59e-06,0.0,0 STARLINK-4672,1 53592U 22104E   24124.77489350 -.00000559  00000-0 -17032-4 0  9997,2 53592  53.2189  34.0710 0001416  87.5105 272.6050 15.08810440 93035,6917.971,95.439,540.815,538.856,0.0
53592.0,STARLINK-4672,PAYLOAD,2024-05-03 21:46:36,15.0881445,0.0001428,53.2187,33.4756,86.378,273.7375,-0.00018326,-3.201e-05,0.0,0 STARLINK-4672,1 53592U 22104E   24124.90736531 -.00003201  00000-0 -18326-3 0  9991,2 53592  53.2187  33.4756 0001428  86.3780 273.7375 15.08814450 94077,6917.958,95.439,540.811,538.836,0.0
53592.0,STARLINK-4672,PAYLOAD,2024-05-04 04:08:08,15.08821875,0.0001412,53.2161,32.2854,87.9334,272.182,-0.00020427,-3.536e-05,0.0,0 STARLINK-4672,1 53592U 22104E   24125.17232467 -.00003536  00000-0 -20427-3 0  9996,2 53592  53.2161  32.2854 0001412  87.9334 272.1820 15.08821875 93098,6917.936,95.439,540.778,538.824,0.0
53592.0,STARLINK-4672,PAYLOAD,2024-05-05 02:23:33,15.08829844,0.0001331,53.2177,28.1224,85.517,274.5974,-5.202e-05,-1.115e-05,0.0,0 STARLINK-4672,1 53592U 22104E   24126.09968849 -.00001115  00000-0 -52020-4 0  9994,2 53592  53.2177  28.1224 0001331  85.5170 274.5974 15.08829844 93238,6917.911,95.438,540.697,538.856,0.0
53592.0,STARLINK-4672,PAYLOAD,2024-05-05 21:28:10,15.08839505,0.0001113,53.2163,24.5544,79.8541,280.2577,0.00043883,6.703e-05,0.0,0 STARLINK-4672,1 53592U 22104E   24126.89456830  .00006703  00000-0  43883-3 0  9996,2 53592  53.2163  24.5544 0001113  79.8541 280.2577 15.08839505 94378,6917.882,95.438,540.517,538.977,0.0
53592.0,STARLINK-4672,PAYLOAD,2024-05-06 02:14:19,15.08855711,0.0001216,53.2166,23.6615,107.0265,253.086,0.00061205,9.47e-05,0.0,0 STARLINK-4672,1 53592U 22104E   24127.09327975  .00009470  00000-0  61205-3 0  9998,2 53592  53.2166  23.6615 0001216 107.0265 253.0860 15.08855711 93381,6917.832,95.437,540.539,538.856,0.0
53592.0,STARLINK-4672,PAYLOAD,2024-05-06 10:11:14,15.08868,0.0001462,53.2169,22.1765,73.4457,286.6696,0.00067511,0.00010481,0.0,0 STARLINK-4672,1 53592U 22104E   24127.42447156  .00010481  00000-0  67511-3 0  9999,2 53592  53.2169  22.1765 0001462  73.4457 286.6696 15.08868000 94459,6917.795,95.436,540.671,538.648,0.0
